STARLINK-3100
1 19144C 21082Q   21326.13353032 -.00660916  00000-0 -11107-1 0  3264
2 19144  70.0000 293.3851 0003465 271.7334  46.9197 15.52256011    12
